ONEWEB-0379             
1 49305U 21090AC  24359.81947051 -.00000072  00000+0 -22995-3 0  9991
2 49305  87.8999  36.9589 0001777  94.0848 266.0485 13.14502259156700
ONEWEB-0380             
1 49306U 21090AD  24360.05191323  .00000019  00000+0  16146-4 0  9994
2 49306  87.9171  52.1735 0001864  97.5750 262.5594 13.19724084156590
ONEWEB-0381             
1 49307U 21090AE  24359.76995336  .00003112  00000+0  76170-2 0  9995
2 49307  87.9250  21.7591 0001914  97.0174 263.1177 13.20794989158625
ONEWEB-0382             
1 49308U 21090AF  24359.60583518  .00000024  00000+0  26572-4 0  9996
2 49308  87.9251  21.7870 0002062  85.0926 275.0443 13.20770659158596
ONEWEB-0383             
1 49309U 21090AG  24359.81312058  .00000082  00000+0  18672-3 0  9994
2 49309  87.8997  36.9443 0001770  89.1391 270.9941 13.14501361156739
ONEWEB-0384             
1 49310U 21090AH  24359.82995090 -.00000004  00000+0 -41076-4 0  9991
2 49310  87.9251  21.7566 0002082  83.3715 276.7655 13.20770105158634
ONEWEB-0385             
1 49311U 21090AJ  24359.82521530 -.00000003  00000+0 -40226-4 0  9991
2 49311  87.9250  21.7589 0001896  89.5043 270.6308 13.20771331158600
ONEWEB-0386             
1 49312U 21090AK  24359.76682797  .00000056  00000+0  10669-3 0  9991
2 49312  87.9242  21.7526 0001947  85.2426 274.8930 13.20771436158612
